[{"OBJECT_NAME":"OCEANSAT-2","OBJECT_ID":"2009-051A","EPOCH":"2026-03-09T23:26:13.608096","MEAN_MOTION":13.9963812,"ECCENTRICITY":0.00172663,"INCLINATION":98.2279,"RA_OF_ASC_NODE":65.7594,"ARG_OF_PERICENTER":150.7548,"MEAN_ANOMALY":209.4589,"EPHEMERIS_TYPE":0,"CLASSIFICATION_TYPE":"U","NORAD_CAT_ID":35931,"ELEMENT_SET_NO":999,"REV_AT_EPOCH":86545,"BSTAR":0.00020254017,"MEAN_MOTION_DOT":2.59e-6,"MEAN_MOTION_DDOT":0},{"OBJECT_NAME":"COSMOS 1275 DEB","OBJECT_ID":"1981-053LQ","EPOCH":"2026-03-09T12:10:14.379168","MEAN_MOTION":13.69256232,"ECCENTRICITY":0.01349597,"INCLINATION":82.9222,"RA_OF_ASC_NODE":256.7636,"ARG_OF_PERICENTER":224.8595,"MEAN_ANOMALY":163.6665,"EPHEMERIS_TYPE":0,"CLASSIFICATION_TYPE":"U","NORAD_CAT_ID":18275,"ELEMENT_SET_NO":999,"REV_AT_EPOCH":4270,"BSTAR":0.001118631,"MEAN_MOTION_DOT":1.048e-5,"MEAN_MOTION_DDOT":0}]
